COSMOS 1408 DEB         
1 50669U 82092ANR 23258.22611300  .00082310  00000+0  88936-3 0  9992
2 50669  82.7072 177.7089 0031011 248.1306 111.6654 15.62711564 97203
COSMOS 1408 DEB         
1 50689U 82092APM 23258.75880387  .00013877  00000+0  35442-3 0  9991
2 50689  82.5181 168.2110 0051454 144.0209 216.4518 15.37933686 96040
COSMOS 1408 DEB         
1 50730U 82092ARE 23258.48656160  .00019269  00000+0  46276-3 0  9996
2 50730  82.5691 172.5611 0017436 194.8085 165.2653 15.41055088 96692
COSMOS 1408 DEB         
1 50752U 82092ASC 23258.73063997  .00256440  00000+0  10296-2 0  9994
2 50752  82.5585 158.1179 0005674 198.7862 161.3200 15.85795721 99561
COSMOS 1408 DEB         
1 50926U 82092AVV 23258.07751477  .00184550  00000+0  21102-2 0  9991
2 50926  82.5579 182.1033 0036456 200.0687 159.9140 15.60738405 95502
COSMOS 1408 DEB         
1 50937U 82092AWG 23258.75730847  .00037505  00000+0  75244-3 0  9990
2 50937  82.5780 174.7584 0030760 171.4969 188.6808 15.45990496 94841
COSMOS 1408 DEB         
1 50967U 82092AXN 23258.23147158  .00032793  00000+0  76347-3 0  9992
2 50967  82.7274 188.7375 0014859 181.5248 178.5957 15.42011979 95672
COSMOS 1408 DEB         
1 51184U 82092AZJ 23258.22266717  .00014529  00000+0  37433-3 0  9996
2 51184  82.4996 165.3796 0024863 147.0427 213.2374 15.38744116 93930
COSMOS 1408 DEB         
1 51225U 82092BBB 23258.76124856  .00020754  00000+0  54455-3 0  9998
2 51225  82.4688 168.5856 0060927 289.5267  69.9403 15.36578566 94573
COSMOS 1408 DEB         
1 51229U 82092BBF 23258.27497833  .00092546  00000+0  20023-2 0  9997
2 51229  82.5695 187.3308 0062353 226.7424 132.8611 15.42027561 95023
COSMOS 1408 DEB         
1 51231U 82092BBH 23258.73717951  .00120895  00000+0  10723-2 0  9992
2 51231  82.5620 165.6926 0010970 215.4277 144.6256 15.68102484 94096
COSMOS 1408 DEB         
1 51305U 82092BDX 23258.68733762  .00042813  00000+0  55815-3 0  9991
2 51305  82.5020 155.6593 0029039  74.6128 285.8332 15.58001856 94607
COSMOS 1408 DEB         
1 51322U 82092BEQ 23258.53716097  .00031610  00000+0  62182-3 0  9994
2 51322  82.7420 189.0461 0057638 267.8615  91.6033 15.45250848 93939
COSMOS 1408 DEB         
1 51430U 82092BKC 23258.04400431  .00391607  00000+0  26456-2 0  9990
2 51430  82.5711 180.3243 0024893 193.5478 166.5122 15.73567648 92346
COSMOS 1408 DEB         
1 51435U 82092BKH 23258.22240012  .00017067  00000+0  64291-3 0  9997
2 51435  82.5640 186.9151 0067675 242.7446 116.6887 15.24784753 91829
COSMOS 1408 DEB         
1 51515U 82092BKQ 23256.53612264  .00063901  00000+0  17376-2 0  9999
2 51515  82.5664 189.7593 0071527 235.0883 124.3626 15.34675913 89514
