[{"OBJECT_NAME":"COSMOS 1408 DEB","OBJECT_ID":"1982-092ANR","EPOCH":"2023-09-15T05:25:36.163200","MEAN_MOTION":15.62711564,"ECCENTRICITY":0.0031011,"INCLINATION":82.7072,"RA_OF_ASC_NODE":177.7089,"ARG_OF_PERICENTER":248.1306,"MEAN_ANOMALY":111.6654,"EPHEMERIS_TYPE":0,"CLASSIFICATION_TYPE":"U","NORAD_CAT_ID":50669,"ELEMENT_SET_NO":999,"REV_AT_EPOCH":9720,"BSTAR":0.00088936,"MEAN_MOTION_DOT":0.0008231,"MEAN_MOTION_DDOT":0},{"OBJECT_NAME":"COSMOS 1408 DEB","OBJECT_ID":"1982-092APM","EPOCH":"2023-09-15T18:12:40.654368","MEAN_MOTION":15.37933686,"ECCENTRICITY":0.0051454,"INCLINATION":82.5181,"RA_OF_ASC_NODE":168.211,"ARG_OF_PERICENTER":144.0209,"MEAN_ANOMALY":216.4518,"EPHEMERIS_TYPE":0,"CLASSIFICATION_TYPE":"U","NORAD_CAT_ID":50689,"ELEMENT_SET_NO":999,"REV_AT_EPOCH":9604,"BSTAR":0.00035442,"MEAN_MOTION_DOT":0.00013877,"MEAN_MOTION_DDOT":0},{"OBJECT_NAME":"COSMOS 1408 DEB","OBJECT_ID":"1982-092ARE","EPOCH":"2023-09-15T11:40:38.922240","MEAN_MOTION":15.41055088,"ECCENTRICITY":0.0017436,"INCLINATION":82.5691,"RA_OF_ASC_NODE":172.5611,"ARG_OF_PERICENTER":194.8085,"MEAN_ANOMALY":165.2653,"EPHEMERIS_TYPE":0,"CLASSIFICATION_TYPE":"U","NORAD_CAT_ID":50730,"ELEMENT_SET_NO":999,"REV_AT_EPOCH":9669,"BSTAR":0.00046276,"MEAN_MOTION_DOT":0.00019269,"MEAN_MOTION_DDOT":0},{"OBJECT_NAME":"COSMOS 1408 DEB","OBJECT_ID":"1982-092ASC","EPOCH":"2023-09-15T17:32:07.293408","MEAN_MOTION":15.85795721,"ECCENTRICITY":0.0005674,"INCLINATION":82.5585,"RA_OF_ASC_NODE":158.1179,"ARG_OF_PERICENTER":198.7862,"MEAN_ANOMALY":161.32,"EPHEMERIS_TYPE":0,"CLASSIFICATION_TYPE":"U","NORAD_CAT_ID":50752,"ELEMENT_SET_NO":999,"REV_AT_EPOCH":9956,"BSTAR":0.0010296,"MEAN_MOTION_DOT":0.0025644,"MEAN_MOTION_DDOT":0},{"OBJECT_NAME":"COSMOS 1408 DEB","OBJECT_ID":"1982-092AVV","EPOCH":"2023-09-15T01:51:37.276128","MEAN_MOTION":15.60738405,"ECCENTRICITY":0.0036456,"INCLINATION":82.5579,"RA_OF_ASC_NODE":182.1033,"ARG_OF_PERICENTER":200.0687,"MEAN_ANOMALY":159.914,"EPHEMERIS_TYPE":0,"CLASSIFICATION_TYPE":"U","NORAD_CAT_ID":50926,"ELEMENT_SET_NO":999,"REV_AT_EPOCH":9550,"BSTAR":0.0021102,"MEAN_MOTION_DOT":0.0018455,"MEAN_MOTION_DDOT":0},{"OBJECT_NAME":"COSMOS 1408 DEB","OBJECT_ID":"1982-092AWG","EPOCH":"2023-09-15T18:10:31.451808","MEAN_MOTION":15.45990496,"ECCENTRICITY":0.003076,"INCLINATION":82.578,"RA_OF_ASC_NODE":174.7584,"ARG_OF_PERICENTER":171.4969,"MEAN_ANOMALY":188.6808,"EPHEMERIS_TYPE":0,"CLASSIFICATION_TYPE":"U","NORAD_CAT_ID":50937,"ELEMENT_SET_NO":999,"REV_AT_EPOCH":9484,"BSTAR":0.00075244,"MEAN_MOTION_DOT":0.00037505,"MEAN_MOTION_DDOT":0},{"OBJECT_NAME":"COSMOS 1408 DEB","OBJECT_ID":"1982-092AXN","EPOCH":"2023-09-15T05:33:19.144512","MEAN_MOTION":15.42011979,"ECCENTRICITY":0.0014859,"INCLINATION":82.7274,"RA_OF_ASC_NODE":188.7375,"ARG_OF_PERICENTER":181.5248,"MEAN_ANOMALY":178.5957,"EPHEMERIS_TYPE":0,"CLASSIFICATION_TYPE":"U","NORAD_CAT_ID":50967,"ELEMENT_SET_NO":999,"REV_AT_EPOCH":9567,"BSTAR":0.00076347,"MEAN_MOTION_DOT":0.00032793,"MEAN_MOTION_DDOT":0},{"OBJECT_NAME":"COSMOS 1408 DEB","OBJECT_ID":"1982-092AZJ","EPOCH":"2023-09-15T05:20:38.443488","MEAN_MOTION":15.38744116,"ECCENTRICITY":0.0024863,"INCLINATION":82.4996,"RA_OF_ASC_NODE":165.3796,"ARG_OF_PERICENTER":147.0427,"MEAN_ANOMALY":213.2374,"EPHEMERIS_TYPE":0,"CLASSIFICATION_TYPE":"U","NORAD_CAT_ID":51184,"ELEMENT_SET_NO":999,"REV_AT_EPOCH":9393,"BSTAR":0.00037433,"MEAN_MOTION_DOT":0.00014529,"MEAN_MOTION_DDOT":0},{"OBJECT_NAME":"COSMOS 1408 DEB","OBJECT_ID":"1982-092BBB","EPOCH":"2023-09-15T18:16:11.875584","MEAN_MOTION":15.36578566,"ECCENTRICITY":0.0060927,"INCLINATION":82.4688,"RA_OF_ASC_NODE":168.5856,"ARG_OF_PERICENTER":289.5267,"MEAN_ANOMALY":69.9403,"EPHEMERIS_TYPE":0,"CLASSIFICATION_TYPE":"U","NORAD_CAT_ID":51225,"ELEMENT_SET_NO":999,"REV_AT_EPOCH":9457,"BSTAR":0.00054455,"MEAN_MOTION_DOT":0.00020754,"MEAN_MOTION_DDOT":0},{"OBJECT_NAME":"COSMOS 1408 DEB","OBJECT_ID":"1982-092BBF","EPOCH":"2023-09-15T06:35:58.127712","MEAN_MOTION":15.42027561,"ECCENTRICITY":0.0062353,"INCLINATION":82.5695,"RA_OF_ASC_NODE":187.3308,"ARG_OF_PERICENTER":226.7424,"MEAN_ANOMALY":132.8611,"EPHEMERIS_TYPE":0,"CLASSIFICATION_TYPE":"U","NORAD_CAT_ID":51229,"ELEMENT_SET_NO":999,"REV_AT_EPOCH":9502,"BSTAR":0.0020023,"MEAN_MOTION_DOT":0.00092546,"MEAN_MOTION_DDOT":0},{"OBJECT_NAME":"COSMOS 1408 DEB","OBJECT_ID":"1982-092BBH","EPOCH":"2023-09-15T17:41:32.309664","MEAN_MOTION":15.68102484,"ECCENTRICITY":0.001097,"INCLINATION":82.562,"RA_OF_ASC_NODE":165.6926,"ARG_OF_PERICENTER":215.4277,"MEAN_ANOMALY":144.6256,"EPHEMERIS_TYPE":0,"CLASSIFICATION_TYPE":"U","NORAD_CAT_ID":51231,"ELEMENT_SET_NO":999,"REV_AT_EPOCH":9409,"BSTAR":0.0010723,"MEAN_MOTION_DOT":0.00120895,"MEAN_MOTION_DDOT":0},{"OBJECT_NAME":"COSMOS 1408 DEB","OBJECT_ID":"1982-092BDX","EPOCH":"2023-09-15T16:29:45.970368","MEAN_MOTION":15.58001856,"ECCENTRICITY":0.0029039,"INCLINATION":82.502,"RA_OF_ASC_NODE":155.6593,"ARG_OF_PERICENTER":74.6128,"MEAN_ANOMALY":285.8332,"EPHEMERIS_TYPE":0,"CLASSIFICATION_TYPE":"U","NORAD_CAT_ID":51305,"ELEMENT_SET_NO":999,"REV_AT_EPOCH":9460,"BSTAR":0.00055815,"MEAN_MOTION_DOT":0.00042813,"MEAN_MOTION_DDOT":0},{"OBJECT_NAME":"COSMOS 1408 DEB","OBJECT_ID":"1982-092BEQ","EPOCH":"2023-09-15T12:53:30.707808","MEAN_MOTION":15.45250848,"ECCENTRICITY":0.0057638,"INCLINATION":82.742,"RA_OF_ASC_NODE":189.0461,"ARG_OF_PERICENTER":267.8615,"MEAN_ANOMALY":91.6033,"EPHEMERIS_TYPE":0,"CLASSIFICATION_TYPE":"U","NORAD_CAT_ID":51322,"ELEMENT_SET_NO":999,"REV_AT_EPOCH":9393,"BSTAR":0.00062182,"MEAN_MOTION_DOT":0.0003161,"MEAN_MOTION_DDOT":0},{"OBJECT_NAME":"COSMOS 1408 DEB","OBJECT_ID":"1982-092BKC","EPOCH":"2023-09-15T01:03:21.972384","MEAN_MOTION":15.73567648,"ECCENTRICITY":0.0024893,"INCLINATION":82.5711,"RA_OF_ASC_NODE":180.3243,"ARG_OF_PERICENTER":193.5478,"MEAN_ANOMALY":166.5122,"EPHEMERIS_TYPE":0,"CLASSIFICATION_TYPE":"U","NORAD_CAT_ID":51430,"ELEMENT_SET_NO":999,"REV_AT_EPOCH":9234,"BSTAR":0.0026456,"MEAN_MOTION_DOT":0.00391607,"MEAN_MOTION_DDOT":0},{"OBJECT_NAME":"COSMOS 1408 DEB","OBJECT_ID":"1982-092BKH","EPOCH":"2023-09-15T05:20:15.370368","MEAN_MOTION":15.24784753,"ECCENTRICITY":0.0067675,"INCLINATION":82.564,"RA_OF_ASC_NODE":186.9151,"ARG_OF_PERICENTER":242.7446,"MEAN_ANOMALY":116.6887,"EPHEMERIS_TYPE":0,"CLASSIFICATION_TYPE":"U","NORAD_CAT_ID":51435,"ELEMENT_SET_NO":999,"REV_AT_EPOCH":9182,"BSTAR":0.00064291,"MEAN_MOTION_DOT":0.00017067,"MEAN_MOTION_DDOT":0},{"OBJECT_NAME":"COSMOS 1408 DEB","OBJECT_ID":"1982-092BKQ","EPOCH":"2023-09-13T12:52:00.996096","MEAN_MOTION":15.34675913,"ECCENTRICITY":0.0071527,"INCLINATION":82.5664,"RA_OF_ASC_NODE":189.7593,"ARG_OF_PERICENTER":235.0883,"MEAN_ANOMALY":124.3626,"EPHEMERIS_TYPE":0,"CLASSIFICATION_TYPE":"U","NORAD_CAT_ID":51515,"ELEMENT_SET_NO":999,"REV_AT_EPOCH":8951,"BSTAR":0.0017376,"MEAN_MOTION_DOT":0.00063901,"MEAN_MOTION_DDOT":0}]
